K19S02J 19.2   0.15 K198P 325.12299  268.22056  150.99189   28.07594  0.4518889  0.24275239   2.5450347    MPO496139    19   1   49 days 0.16         Williams   2005          2019 SJ2           20190922
K19S06K 19.0   0.15 K199E  89.84221    2.31417  259.16755   20.12837  0.0339154  0.39776670   1.8311213    MPO529378    23   1   20 days 0.36         Williams   2006          2019 SK6           20191009
K19S07T 19.9   0.15 K199E  27.88016   37.37332  276.60459    4.90114  0.3568132  0.31965343   2.1184415    MPO529379    24   1   10 days 0.25         Williams   2005          2019 ST7           20191008
K19S09S 21.2   0.15 K19A4   3.09999  260.36779  106.13625    9.31747  0.4556671  0.25615214   2.4554856    MPO529379    17   1    9 days 0.25         Williams   2005          2019 SS9           20191008
K19S10Y 19.9   0.15 K199E 315.73446  187.99390  236.07787    7.96316  0.3415415  0.28538482   2.2848032    MPO496139     9   1    9 days 0.10         Veres      2005          2019 SY10          20191005
K19S10Z 22.6   0.15 K199E   1.30913  197.96898  157.12992    8.41112  0.4404825  0.23137199   2.6278195    MPO496139    11   1   10 days 0.14         Veres      2005          2019 SZ10          20191005
K19S11A 20.2   0.15 K19A4   1.23919  228.07456  145.11061   14.28848  0.4338159  0.22897221   2.6461484    MPO529379    12   1    9 days 0.26         Williams   2005          2019 SA11          20191008
K19S11F 19.8   0.15 K19A4   5.35156   77.28230  275.86605   16.61174  0.4426261  0.17966444   3.1104839    MPO504271    26   1   41 days 0.24         Bell       2000          2019 SF11          20191030
K19SA8N 17.2   0.15 K19A4  60.57268  254.09886   41.55664   25.07495  0.2735719  0.17999449   3.1066803    MPO562940    15   1   31 days 0.26         Veres      2000          2019 SN108         20191026
K19SC0O 17.1   0.15 K199E 162.72486   45.99610  150.58929   10.85649  0.0608259  0.18697016   3.0289203  E MPO587138    12   1   14 days 0.28         Veres      2000          2019 SO120         20191006
K19SC0P 18.1   0.15 K199E  29.52907   77.22591  242.01064   15.48801  0.2280759  0.17736308   3.1373326  E MPO587138    14   1   10 days 0.15         Veres      2000          2019 SP120         20191008
K19SC0Q 17.0   0.15 K199E 180.92121  314.53447  230.77935   23.54982  0.0491171  0.17830806   3.1262382  E MPO587138    11   1   10 days 0.21         Veres      2000          2019 SQ120         20191008
K19SC0R 18.3   0.15 K199E 333.28936  157.43325  249.08807   16.23370  0.2364305  0.17931996   3.1144662  E MPO587138    11   1   10 days 0.15         Veres      2000          2019 SR120         20191008
K19SC0S 18.2   0.15 K199E 343.71788  167.90632  222.35440   22.61890  0.1800772  0.18602141   3.0392104  E MPO587138    11   1   10 days 0.18         Veres      2000          2019 SS120         20191008
K19SC0T 17.9   0.15 K199E 346.88375  141.95263  246.02229   15.50385  0.1903702  0.17407190   3.1767541  E MPO587138    12   1   10 days 0.15         Veres      2000          2019 ST120         20191008
K19SC0U 19.8   0.15 K199E   8.31259   99.21379  248.27515   10.03122  0.3240668  0.22908237   2.6453000  E MPO587138    11   1   10 days 0.29         Veres      2000          2019 SU120         20191008
K19SC0W 17.6   0.15 K199E  28.30089   32.46553  301.49894   11.45719  0.1337852  0.18949143   3.0019929  E MPO587138    11   1   10 days 0.14         Veres      2000          2019 SW120         20191008
K19SC0Y 17.5   0.15 K199E 288.84143  127.52167  338.06405   18.58082  0.1721357  0.17252298   3.1957398  E MPO587138    10   1   10 days 0.21         Veres      2000          2019 SY120         20191008
K19SC0Z 17.5   0.15 K199E  13.28210  118.34070  235.70719   15.69157  0.1081214  0.17576422   3.1563300  E MPO587138    12   1   10 days 0.14         Veres      2000          2019 SZ120         20191008
K19SC1A 18.4   0.15 K199E 349.93508  150.36828  235.19760   15.80533  0.2314040  0.17386038   3.1793302  E MPO587138    10   1   10 days 0.18         Veres      2000          2019 SA121         20191008
K19SC1D 17.4   0.15 K199E  81.17911  354.24196  267.80267   12.99541  0.2186347  0.22480894   2.6787180  E MPO587138    10   1   10 days 0.11         Veres      2000          2019 SD121         20191008
K19SC1F 18.8   0.15 K199E 355.24769  127.04473  246.40036   14.76760  0.2237412  0.17637297   3.1490631  E MPO587138    11   1   10 days 0.25         Veres      2000          2019 SF121         20191008
K19SC1H 17.8   0.15 K199E  64.11383   37.68902  260.99699   10.65780  0.0896366  0.21805375   2.7337597  E MPO587138    11   1   10 days 0.19         Veres      2000          2019 SH121         20191008
K19SC1J 18.7   0.15 K199E   9.35686   98.91168  258.37492   11.25614  0.1651727  0.21491107   2.7603460  E MPO587138    12   1   10 days 0.18         Veres      2000          2019 SJ121         20191008
K19SC1K 18.1   0.15 K19A4 297.20573  136.19157  313.42521   11.15938  0.1548551  0.23644206   2.5901180  E MPO587138    11   1    9 days 0.12         Veres      2000          2019 SK121         20191008
K19SC1L 17.7   0.15 K19A4  43.23347  310.52843  353.45643   25.71749  0.2684600  0.18686758   3.0300287  E MPO587138    11   1    9 days 0.14         Veres      2000          2019 SL121         20191008
K19SC1M 18.2   0.15 K19A4 331.39149  133.20407  290.01561    6.61802  0.2780671  0.17213970   3.2004818  E MPO587138    12   1   26 days 0.18         Veres      2000          2019 SM121         20191025
K19SC1O 17.6   0.15 K19A4 345.67209   89.40947  299.28107    9.01579  0.0895488  0.17897094   3.1185140  E MPO587138    10   1    9 days 0.20         Veres      2000          2019 SO121         20191008
K19SC1Q 18.7   0.15 K19A4 357.09737  126.15200  249.70081    9.59239  0.2660244  0.18859044   3.0115467  E MPO587138    12   1    9 days 0.24         Veres      2000          2019 SQ121         20191008
K19SC1U 18.8   0.15 K19A4  44.68741   24.96558  284.11942    6.82196  0.2090645  0.27132677   2.3630575  E MPO587138    12   1    9 days 0.21         Veres      2000          2019 SU121         20191008
K19SC1V 20.3   0.15 K19A4 345.98501  133.50187  261.23954    6.09533  0.1848141  0.28831531   2.2692948  E MPO587138    11   1    9 days 0.18         Veres      2000          2019 SV121         20191008
K19SC1X 17.8   0.15 K19A4 341.16166   92.93857  304.46385    9.44661  0.0944413  0.22986822   2.6392676  E MPO587138    11   1    9 days 0.10         Veres      2000          2019 SX121         20191008
K19SC1Z 16.4   0.15 K19A4 113.73552    7.10944  238.46665   16.05297  0.1612079  0.17518583   3.1632734  E MPO587138    11   1    9 days 0.15         Veres      2000          2019 SZ121         20191008
K19SC2A 19.0   0.15 K19A4  27.26193   64.03399  267.66160    8.25871  0.2166193  0.23441806   2.6050056  E MPO587138    12   1    9 days 0.25         Veres      2000          2019 SA122         20191008
K19SC2B 18.1   0.15 K19A4 340.60260  126.90047  272.24801    9.75612  0.1458550  0.18482706   3.0522892  E MPO587138    12   1    9 days 0.15         Veres      2000          2019 SB122         20191008
K19SC2C 17.6   0.15 K19A4 153.59266  327.17775  246.61493   13.78046  0.1054295  0.23279689   2.6170856  E MPO587138    12   1    9 days 0.30         Veres      2000          2019 SC122         20191008
K19SC2D 17.9   0.15 K19A4  71.65769   47.21455  239.06084   14.41515  0.1182448  0.22947814   2.6422577  E MPO587138    12   1    9 days 0.14         Veres      2000          2019 SD122         20191008
K19SC2E 18.9   0.15 K19A4  12.90258  352.36469  355.47188    8.48068  0.2875349  0.18025620   3.1036726  E MPO587138    10   1   25 days 0.20         Veres      2000          2019 SE122         20191025
K19SC2F 19.2   0.15 K19A4 357.79977   50.63962  324.47054    4.96274  0.2373241  0.23252696   2.6191106  E MPO587138    10   1   25 days 0.13         Veres      2000          2019 SF122         20191025
K19SC2G 19.3   0.15 K19A4 323.82478  175.54891  246.34486    4.47678  0.1692523  0.25296355   2.4760766  E MPO587138    11   1   25 days 0.23         Veres      2000          2019 SG122         20191025
K19SC2H 18.0   0.15 K19A4 351.62942   42.30270  338.36152   11.51169  0.0743421  0.20130113   2.8834023  E MPO587138    11   1   25 days 0.32         Veres      2000          2019 SH122         20191025
K19SC2L 18.0   0.15 K19A4  18.70212   60.71118  293.29160    5.55240  0.0485301  0.22270104   2.6955945  E MPO587138    11   1   25 days 0.21         Veres      2000          2019 SL122         20191025
K19SC2M 19.9   0.15 K19A4 320.83625  143.70252  281.30234    4.16711  0.1553073  0.31950481   2.1190984  E MPO587138    10   1   25 days 0.14         Veres      2000          2019 SM122         20191025
K19SC2N 17.1   0.15 K19A4 350.95844  251.46347  148.73943    1.41872  0.1747025  0.12556590   3.9496163  E MPO587138    11   1   27 days 0.23         Veres      2008          2019 SN122         20191027
K19SC2O 17.1   0.15 K199E 341.05110  114.88595  283.94464    2.90883  0.0639768  0.17289244   3.1911854  E MPO587138    10   1   14 days 0.12         Veres      2000          2019 SO122         20191008
K19SC2P 17.2   0.15 K19A4 166.86526   59.44216  164.81121    7.10023  0.0376387  0.19721276   2.9231159  E MPO587138    11   1   31 days 0.09         Veres      2000          2019 SP122         20191025
K19SC2Q 18.1   0.15 K199E 340.09515  317.63725   69.65394    8.86628  0.2281910  0.21278330   2.7787173  E MPO587138    12   1   11 days 0.08         Veres      2000          2019 SQ122         20191006
K19SC2R 18.7   0.15 K199E  48.03201  205.83345   98.13623    7.28383  0.1275029  0.26051857   2.4279715  E MPO587139    12   1   10 days 0.17         Veres      2000          2019 SR122         20191005
K19SC2S 18.9   0.15 K199E 357.31385  216.63215  150.56435    9.37646  0.2300511  0.21976228   2.7195723  E MPO587139    16   1   10 days 0.14         Veres      2000          2019 SS122         20191005
